OBJECT_NAME,OBJECT_ID,EPOCH,MEAN_MOTION,ECCENTRICITY,INCLINATION,RA_OF_ASC_NODE,ARG_OF_PERICENTER,MEAN_ANOMALY,EPHEMERIS_TYPE,CLASSIFICATION_TYPE,NORAD_CAT_ID,ELEMENT_SET_NO,REV_AT_EPOCH,BSTAR,MEAN_MOTION_DOT,MEAN_MOTION_DDOT
S-NET B,2018-014H,2026-05-10T17:30:50.275584,15.16287449,.0010117,97.5393,35.7450,135.4783,224.7264,0,U,43187,999,45308,.16546E-3,.3139E-4,0
S-NET A,2018-014J,2026-05-10T15:39:01.330272,15.16323114,.0010007,97.5403,35.8695,136.1829,224.0199,0,U,43188,999,45307,.15248E-3,.2891E-4,0
S-NET C,2018-014K,2026-05-10T17:36:07.650432,15.16278595,.0011515,97.5421,36.0193,130.5221,229.7017,0,U,43189,999,45163,.17156E-3,.3258E-4,0
PAZ,2018-020A,2026-05-10T19:48:47.784384,15.19145222,.000178,97.4462,138.7416,88.2710,271.8729,0,U,43215,999,45533,.97228E-4,.1975E-4,0
GOES 17,2018-022A,2026-05-10T19:22:50.056320,1.00272368,.0000704,0.8418,86.2254,326.8012,16.8049,0,U,43226,999,3004,0,-.172E-5,0
LKW-4,2018-025A,2026-05-10T10:39:10.209024,15.59411593,.0003251,97.6335,298.4569,92.7578,267.4050,0,U,43236,999,45414,.34211E-3,.26962E-3,0
ZHUHAI-1 OVS-02,2018-040B,2026-05-10T19:46:55.799616,15.24523852,.0004992,97.0419,150.2802,54.7292,305.4413,0,U,43440,999,44702,.1947E-3,.4725E-4,0
ZHUHAI-1 OHS-02,2018-040C,2026-05-10T19:54:48.296160,15.25334209,.0009553,97.0407,157.1877,17.0923,343.0636,0,U,43441,999,10858,.20763E-3,.5172E-4,0
GAOFEN-6,2018-048A,2026-05-10T20:50:39.882624,14.76586436,.0010728,97.7773,194.9155,300.0090,60.0055,0,U,43484,999,42788,.51423E-4,.31E-5,0
LUOJIA-1 01,2018-048B,2026-05-10T19:59:34.033920,14.87143191,.0007721,97.8096,209.6234,239.5800,120.4654,0,U,43485,999,42866,.17086E-3,.1482E-4,0
PAKTES 1A,2018-056A,2026-05-10T21:21:57.555072,14.98896938,.0021408,98.1220,285.8029,233.3781,126.5472,0,U,43529,999,42633,.17425E-3,.2049E-4,0
PRSS-1,2018-056B,2026-05-10T20:26:09.017664,14.81927787,.0001768,97.7829,199.7530,93.8625,266.2790,0,U,43530,999,42290,.78514E-6,-.45E-6,0
HAIYANG-1C,2018-068A,2026-05-10T20:24:05.926176,14.34166699,.0010384,98.5194,203.6949,199.3581,160.7210,0,U,43609,999,40173,-.13683E-4,-.82E-6,0
SSTL S1-4,2018-071A,2026-05-10T20:05:14.326368,14.96197877,.0001261,97.5074,3.9950,56.0915,304.0427,0,U,43618,999,41735,.40855E-4,.406E-5,0
HAIYANG-2B,2018-081A,2026-05-10T21:04:27.505632,13.79304565,.0001745,99.3305,140.1965,54.1333,305.9981,0,U,43655,999,37978,-.23602E-3,-.286E-5,0
CFOSAT,2018-083A,2026-05-10T19:28:00.329088,15.16468862,.0002003,97.3616,136.4414,64.1744,295.9696,0,U,43662,999,41677,.12141E-3,.2298E-4,0
TEN-KOH,2018-084G,2026-05-10T18:30:51.230592,15.02773353,.0007962,98.0773,321.5645,239.2985,120.7455,0,U,43677,999,41054,.68398E-4,.848E-5,0
DIWATA-2B,2018-084H,2026-05-10T19:44:08.276064,15.00266796,.0012114,98.1098,325.4312,300.3452,59.6572,0,U,43678,999,41061,.19711E-3,.2406E-4,0
STARS-AO,2018-084J,2026-05-10T12:53:59.124768,15.16631972,.0000951,98.0548,342.1933,330.8470,29.2708,0,U,43679,999,41176,.2193E-3,.4213E-4,0
AUTCUBE 2,2018-084K,2026-05-10T12:33:53.429184,15.09827447,.0009382,98.0747,334.7028,162.4955,197.6597,0,U,43681,999,41124,.17253E-3,.2721E-4,0
METOP-C,2018-087A,2026-05-10T19:59:28.652064,14.21501661,.0000243,98.6664,191.1147,89.5486,270.5720,0,U,43689,999,38952,.48978E-4,.64E-6,0
ES'HAIL 2,2018-090A,2026-05-10T14:47:45.789216,1.00273493,.0001654,0.0013,317.2880,126.0347,32.8614,0,U,43700,999,2730,0,.154E-5,0
MOHAMMED VI-B,2018-095A,2026-05-10T20:25:42.890304,14.77068715,.0001362,97.9559,203.6877,75.2537,284.8824,0,U,43717,999,40267,.70995E-4,.45E-5,0
HYSIS,2018-096A,2026-05-10T20:34:44.728032,14.78614071,.0000787,97.9850,197.8943,89.5145,270.6156,0,U,43719,999,40190,.24682E-4,.129E-5,0
COSMOS 2530 (RODNIK-S 16),2018-097A,2026-05-10T20:45:29.439648,12.42880206,.0020747,82.5140,245.4409,117.1341,243.1858,0,U,43751,999,33765,-.66609E-3,-.82E-6,0
COSMOS 2531 (RODNIK-S 17),2018-097B,2026-05-10T19:22:59.175840,12.42912146,.0017791,82.5185,246.5225,135.0168,225.2356,0,U,43752,999,33766,.53213E-4,.17E-6,0
COSMOS 2532 (RODNIK-S 18),2018-097C,2026-05-10T20:03:33.857856,12.42908442,.0019141,82.5130,245.3077,137.1050,223.1526,0,U,43753,999,33763,-.73178E-3,-.91E-6,0
MINXSS-2,2018-099A,2026-05-10T17:38:49.642656,15.44469884,.0007703,97.4547,205.9959,51.8550,308.3392,0,U,43758,999,40834,.47593E-3,.22004E-3,0
SIRION PATHFINDER-2,2018-099B,2026-05-10T20:22:07.426848,15.14202933,.0010379,97.4283,180.7980,74.0025,286.2350,0,U,43759,999,40697,.1538E-3,.2746E-4,0
AISTECHSAT 2,2018-099L,2026-05-10T13:54:15.617088,15.15061576,.0006332,97.4325,179.4418,77.7251,282.4690,0,U,43768,999,40658,.16887E-3,.3094E-4,0
