S-NET B                 
1 43187U 18014H   26130.72974856  .00003139  00000+0  16546-3 0  9997
2 43187  97.5393  35.7450 0010117 135.4783 224.7264 15.16287449453080
S-NET A                 
1 43188U 18014J   26130.65209873  .00002891  00000+0  15248-3 0  9992
2 43188  97.5403  35.8695 0010007 136.1829 224.0199 15.16323114453071
S-NET C                 
1 43189U 18014K   26130.73342188  .00003258  00000+0  17156-3 0  9997
2 43189  97.5421  36.0193 0011515 130.5221 229.7017 15.16278595451630
PAZ                     
1 43215U 18020A   26130.82555306  .00001975  00000+0  97228-4 0  9995
2 43215  97.4462 138.7416 0001780  88.2710 271.8729 15.19145222455339
GOES 17                 
1 43226U 18022A   26130.80752380 -.00000172  00000+0  00000+0 0  9994
2 43226   0.8418  86.2254 0000704 326.8012  16.8049  1.00272368 30044
LKW-4                   
1 43236U 18025A   26130.44386816  .00026962  00000+0  34211-3 0  9994
2 43236  97.6335 298.4569 0003251  92.7578 267.4050 15.59411593454140
ZHUHAI-1 OVS-02         
1 43440U 18040B   26130.82425694  .00004725  00000+0  19470-3 0  9991
2 43440  97.0419 150.2802 0004992  54.7292 305.4413 15.24523852447022
ZHUHAI-1 OHS-02         
1 43441U 18040C   26130.82972565  .00005172  00000+0  20763-3 0  9990
2 43441  97.0407 157.1877 0009553  17.0923 343.0636 15.25334209108586
GAOFEN-6                
1 43484U 18048A   26130.86851716  .00000310  00000+0  51423-4 0  9990
2 43484  97.7773 194.9155 0010728 300.0090  60.0055 14.76586436427884
LUOJIA-1 01             
1 43485U 18048B   26130.83303280  .00001482  00000+0  17086-3 0  9993
2 43485  97.8096 209.6234 0007721 239.5800 120.4654 14.87143191428662
PAKTES 1A               
1 43529U 18056A   26130.89024948  .00002049  00000+0  17425-3 0  9995
2 43529  98.1220 285.8029 0021408 233.3781 126.5472 14.98896938426333
PRSS-1                  
1 43530U 18056B   26130.85149326 -.00000045  00000+0  78514-6 0  9995
2 43530  97.7829 199.7530 0001768  93.8625 266.2790 14.81927787422901
HAIYANG-1C              
1 43609U 18068A   26130.85006859 -.00000082  00000+0 -13683-4 0  9994
2 43609  98.5194 203.6949 0010384 199.3581 160.7210 14.34166699401736
SSTL S1-4               
1 43618U 18071A   26130.83697137  .00000406  00000+0  40855-4 0  9990
2 43618  97.5074   3.9950 0001261  56.0915 304.0427 14.96197877417357
HAIYANG-2B              
1 43655U 18081A   26130.87809613 -.00000286  00000+0 -23602-3 0  9998
2 43655  99.3305 140.1965 0001745  54.1333 305.9981 13.79304565379788
CFOSAT                  
1 43662U 18083A   26130.81111492  .00002298  00000+0  12141-3 0  9992
2 43662  97.3616 136.4414 0002003  64.1744 295.9696 15.16468862416777
TEN-KOH                 
1 43677U 18084G   26130.77142628  .00000848  00000+0  68398-4 0  9994
2 43677  98.0773 321.5645 0007962 239.2985 120.7455 15.02773353410545
DIWATA-2B               
1 43678U 18084H   26130.82231801  .00002406  00000+0  19711-3 0  9999
2 43678  98.1098 325.4312 0012114 300.3452  59.6572 15.00266796410619
STARS-AO                
1 43679U 18084J   26130.53748987  .00004213  00000+0  21930-3 0  9990
2 43679  98.0548 342.1933 0000951 330.8470  29.2708 15.16631972411768
AUTCUBE 2               
1 43681U 18084K   26130.52353506  .00002721  00000+0  17253-3 0  9996
2 43681  98.0747 334.7028 0009382 162.4955 197.6597 15.09827447411243
METOP-C                 
1 43689U 18087A   26130.83297051  .00000064  00000+0  48978-4 0  9990
2 43689  98.6664 191.1147 0000243  89.5486 270.5720 14.21501661389521
ES'HAIL 2               
1 43700U 18090A   26130.61650219  .00000154  00000+0  00000+0 0  9992
2 43700   0.0013 317.2880 0001654 126.0347  32.8614  1.00273493 27303
MOHAMMED VI-B           
1 43717U 18095A   26130.85119086  .00000450  00000+0  70995-4 0  9997
2 43717  97.9559 203.6877 0001362  75.2537 284.8824 14.77068715402673
HYSIS                   
1 43719U 18096A   26130.85746213  .00000129  00000+0  24682-4 0  9993
2 43719  97.9850 197.8943 0000787  89.5145 270.6156 14.78614071401909
COSMOS 2530 (RODNIK-S *)
1 43751U 18097A   26130.86492407 -.00000082  00000+0 -66609-3 0  9998
2 43751  82.5140 245.4409 0020747 117.1341 243.1858 12.42880206337656
COSMOS 2531 (RODNIK-S *)
1 43752U 18097B   26130.80762935  .00000017  00000+0  53213-4 0  9993
2 43752  82.5185 246.5225 0017791 135.0168 225.2356 12.42912146337669
COSMOS 2532 (RODNIK-S *)
1 43753U 18097C   26130.83580854 -.00000091  00000+0 -73178-3 0  9990
2 43753  82.5130 245.3077 0019141 137.1050 223.1526 12.42908442337633
MINXSS-2                
1 43758U 18099A   26130.73529679  .00022004  00000+0  47593-3 0  9992
2 43758  97.4547 205.9959 0007703  51.8550 308.3392 15.44469884408345
SIRION PATHFINDER-2     
1 43759U 18099B   26130.84869707  .00002746  00000+0  15380-3 0  9994
2 43759  97.4283 180.7980 0010379  74.0025 286.2350 15.14202933406976
AISTECHSAT 2            
1 43768U 18099L   26130.57934742  .00003094  00000+0  16887-3 0  9996
2 43768  97.4325 179.4418 0006332  77.7251 282.4690 15.15061576406588
